CCSDS_OMM_VERS,COMMENT,CREATION_DATE,ORIGINATOR,OBJECT_NAME,OBJECT_ID,CENTER_NAME,REF_FRAME,TIME_SYSTEM,MEAN_ELEMENT_THEORY,EPOCH,MEAN_MOTION,ECCENTRICITY,INCLINATION,RA_OF_ASC_NODE,ARG_OF_PERICENTER,MEAN_ANOMALY,EPHEMERIS_TYPE,CLASSIFICATION_TYPE,NORAD_CAT_ID,ELEMENT_SET_NO,REV_AT_EPOCH,BSTAR,MEAN_MOTION_DOT,MEAN_MOTION_DDOT,SEMIMAJOR_AXIS,PERIOD,APOAPSIS,PERIAPSIS,OBJECT_TYPE,RCS_SIZE,COUNTRY_CODE,LAUNCH_DATE,SITE,DECAY_DATE,FILE,GP_ID,TLE_LINE0,TLE_LINE1,TLE_LINE2,,,,,,,AVG_ALTITUDE,,AVG_VELOCITY
2,GENERATED VIA SPACE-TRACK.ORG API,2022-06-03T02:31:39,18 SPCS,NPSAT1,2019-036B,EARTH,TEME,UTC,SGP4,2022-06-02T19:36:38.124288,14.53914474,0.0011274,24.0008,290.3322,40.748,319.3853,0,U,44340,999,15620,0.00030138,1.50E-05,0,7091.029,99.043,720.889,704.9,PAYLOAD,MEDIUM,US,6/25/2019,AFETR,,3477983,205209959,0 NPSAT1,1 44340U 19036B   22153.81710792  .00001504  00000-0  30138-3 0  9990,2 44340  24.0008 290.3322 0011274  40.7480 319.3853 14.53914474156208,,,,,,,721.029,,7.497462268
2,GENERATED VIA SPACE-TRACK.ORG API,2022-06-03T02:31:39,18 SPCS,OTB,2019-036C,EARTH,TEME,UTC,SGP4,2022-06-02T19:11:32.802144,14.53056283,0.0012004,23.9978,291.0389,41.5961,318.5442,0,U,44341,999,15628,6.17E-05,4.71E-06,0,7093.821,99.101,724.201,707.17,PAYLOAD,LARGE,US,6/25/2019,AFETR,,3477983,205210208,0 OTB,1 44341U 19036C   22153.79968521  .00000471  00000-0  61657-4 0  9996,2 44341  23.9978 291.0389 0012004  41.5961 318.5442 14.53056283156287,,,,,,,723.821,,7.49598669
2,GENERATED VIA SPACE-TRACK.ORG API,2022-06-03T02:31:39,18 SPCS,FORMOSAT7-3/COSMIC2-3,2019-036E,EARTH,TEME,UTC,SGP4,2022-06-02T15:59:56.388768,15.09297224,0.0010073,24.0001,247.2075,178.3887,181.665,0,U,44343,999,16004,0.00013575,2.57E-05,0,6916.483,95.409,545.315,531.381,PAYLOAD,LARGE,ROC,6/25/2019,AFETR,,3477983,205208457,0 FORMOSAT7-3/COSMIC2-3,1 44343U 19036E   22153.66662487  .00002571  00000-0  13575-3 0  9994,2 44343  24.0001 247.2075 0010073 178.3887 181.6650 15.09297224160046,,,,,,,546.483,,7.591476687
2,GENERATED VIA SPACE-TRACK.ORG API,2022-06-03T02:31:39,18 SPCS,OCULUS-ASR,2019-036K,EARTH,TEME,UTC,SGP4,2022-06-02T18:40:18.002496,15.35017479,0.0246138,28.5032,293.4184,146.584,215.0555,0,U,44348,999,16228,0.00063264,0.00065012,-5.07E-06,6839.006,93.81,629.204,292.537,PAYLOAD,MEDIUM,US,6/25/2019,AFETR,,3477983,205209708,0 OCULUS-ASR,1 44348U 19036K   22153.77798614  .00065012 -50702-5  63264-3 0  9992,2 44348  28.5032 293.4184 0246138 146.5840 215.0555 15.35017479162282,,,,,,,469.006,,7.634356341
2,GENERATED VIA SPACE-TRACK.ORG API,2022-06-03T06:46:12,18 SPCS,FORMOSAT7-1/COSMIC2-1,2019-036L,EARTH,TEME,UTC,SGP4,2022-06-03T03:06:42.718176,15.09293058,0.0011311,24.0008,60.0392,222.6339,137.3287,0,U,44349,999,16194,0.00012585,2.41E-05,0,6916.496,95.409,546.184,530.538,PAYLOAD,LARGE,ROC,6/25/2019,AFETR,,3478222,205219886,0 FORMOSAT7-1/COSMIC2-1,1 44349U 19036L   22154.12966109  .00002410  00000-0  12585-3 0  9992,2 44349  24.0008  60.0392 0011311 222.6339 137.3287 15.09293058161948,,,,,,,546.496,,7.591469552
2,GENERATED VIA SPACE-TRACK.ORG API,2022-06-03T02:31:39,18 SPCS,FORMOSAT7-4/COSMIC2-4,2019-036M,EARTH,TEME,UTC,SGP4,2022-06-02T14:56:38.336352,15.09289793,0.0005494,23.9989,125.6188,264.6439,95.3438,0,U,44350,999,16122,0.00013171,2.50E-05,0,6916.506,95.409,542.171,534.571,PAYLOAD,LARGE,ROC,6/25/2019,AFETR,,3477983,205209208,0 FORMOSAT7-4/COSMIC2-4,1 44350U 19036M   22153.62266593  .00002500  00000-0  13171-3 0  9990,2 44350  23.9989 125.6188 0005494 264.6439  95.3438 15.09289793161222,,,,,,,546.506,,7.591464064
2,GENERATED VIA SPACE-TRACK.ORG API,2022-06-03T06:46:12,18 SPCS,FORMOSAT7-2/COSMIC2-2,2019-036N,EARTH,TEME,UTC,SGP4,2022-06-03T04:11:34.069632,15.09313234,0.0013802,23.9976,176.1871,306.2776,53.6452,0,U,44351,999,16086,0.00011749,2.28E-05,0,6916.434,95.408,547.845,528.753,PAYLOAD,LARGE,ROC,6/25/2019,AFETR,,3478211,205219989,0 FORMOSAT7-2/COSMIC2-2,1 44351U 19036N   22154.17469988  .00002277  00000-0  11749-3 0  9995,2 44351  23.9976 176.1871 0013802 306.2776  53.6452 15.09313234160868,,,,,,,546.434,,7.591503578
2,GENERATED VIA SPACE-TRACK.ORG API,2022-06-03T06:46:12,18 SPCS,ARMADILLO,2019-036P,EARTH,TEME,UTC,SGP4,2022-06-02T20:55:52.044960,15.66816396,0.0139307,28.5218,221.0484,260.8877,97.5944,0,U,44352,999,16296,0.00064104,0.00124792,-2.64E-06,6746.157,91.906,462.001,274.043,PAYLOAD,SMALL,US,6/25/2019,AFETR,,3478209,205219937,0 ARMADILLO,1 44352U 19036P   22153.87213015  .00124792 -26413-5  64104-3 0  9992,2 44352  28.5218 221.0484 0139307 260.8877  97.5944 15.66816396162961,,,,,,,376.157,,7.686713557
2,GENERATED VIA SPACE-TRACK.ORG API,2022-06-03T02:31:39,18 SPCS,FORMOSAT7-6/COSMIC2-6,2019-036Q,EARTH,TEME,UTC,SGP4,2022-06-02T21:50:40.737408,15.09291435,0.0002491,24.001,358.8063,325.0017,35.0323,0,U,44353,999,15901,0.00014258,2.68E-05,0,6916.501,95.409,540.089,536.643,PAYLOAD,LARGE,ROC,6/25/2019,AFETR,,3477983,205208458,0 FORMOSAT7-6/COSMIC2-6,1 44353U 19036Q   22153.91019372  .00002676  00000-0  14258-3 0  9997,2 44353  24.0010 358.8063 0002491 325.0017  35.0323 15.09291435159016,,,,,,,546.501,,7.591466808
2,GENERATED VIA SPACE-TRACK.ORG API,2022-06-03T02:31:39,18 SPCS,PSAT 2,2019-036R,EARTH,TEME,UTC,SGP4,2022-06-02T17:52:08.451264,15.37959644,0.0236456,28.5251,280.1995,164.7252,196.0634,0,U,44354,999,16241,0.00060386,0.00065589,-5.15E-06,6830.281,93.631,613.652,290.64,PAYLOAD,SMALL,US,6/25/2019,AFETR,,3477983,205208708,0 PSAT 2,1 44354U 19036R   22153.74454226  .00065589 -51545-5  60386-3 0  9991,2 44354  28.5251 280.1995 0236456 164.7252 196.0634 15.37959644162418,,,,,,,460.281,,7.639230848
2,GENERATED VIA SPACE-TRACK.ORG API,2022-06-03T02:31:39,18 SPCS,OBJECT U,2019-036U,EARTH,TEME,UTC,SGP4,2022-06-02T15:07:34.716288,15.38730304,0.0235878,28.5195,277.9117,168.8287,191.7666,0,U,44357,999,16242,0.0006125,0.00068622,-5.10E-06,6828,93.584,610.922,288.807,UNKNOWN,SMALL,US,6/25/2019,AFETR,,3477983,205209460,0 OBJECT U,1 44357U 19036U   22153.63026292  .00068622 -51045-5  61250-3 0  9997,2 44357  28.5195 277.9117 0235878 168.8287 191.7666 15.38730304162427,,,,,,,458,,7.640506743
2,GENERATED VIA SPACE-TRACK.ORG API,2022-06-03T06:46:12,18 SPCS,FORMOSAT7-5/COSMIC2-5,2019-036V,EARTH,TEME,UTC,SGP4,2022-06-03T02:03:09.770400,15.09308231,0.000695,24.001,297.3447,99.6213,260.5075,0,U,44358,999,15964,0.00014137,2.66E-05,0,6916.45,95.408,543.121,533.508,PAYLOAD,LARGE,ROC,6/25/2019,AFETR,,3478206,205219449,0 FORMOSAT7-5/COSMIC2-5,1 44358U 19036V   22154.08552975  .00002661  00000-0  14137-3 0  9992,2 44358  24.0010 297.3447 0006950  99.6213 260.5075 15.09308231159641,,,,,,,546.45,,7.591494797
2,GENERATED VIA SPACE-TRACK.ORG API,2022-06-03T06:46:12,18 SPCS,REDEYE 1 (PINOT),1998-067QJ,EARTH,TEME,UTC,SGP4,2022-06-02T23:59:14.701344,15.8815104,0.0005354,51.6335,332.4784,213.551,146.5157,0,U,44364,999,16715,0.00041112,0.00116044,0,6685.604,90.671,311.048,303.889,PAYLOAD,MEDIUM,US,11/20/1998,TTMTR,,3478215,205220203,0 REDEYE 1 (PINOT),1 44364U 98067QJ  22153.99947571  .00116044  00000-0  41112-3 0  9993,2 44364  51.6335 332.4784 0005354 213.5510 146.5157 15.88151040167153,,,,,,,315.604,,7.721445227
2,GENERATED VIA SPACE-TRACK.ORG API,2022-06-03T07:16:12,18 SPCS,PAINANI 1,2019-037A,EARTH,TEME,UTC,SGP4,2022-06-03T03:44:49.172352,15.53298299,0.0008914,44.9994,92.1079,139.1166,221.0396,0,U,44365,999,16501,0.0003896,0.00024877,0,6785.241,92.706,413.154,401.057,PAYLOAD,MEDIUM,MEX,6/29/2019,RLLC,,3478481,205226691,0 PAINANI 1,1 44365U 19037A   22154.15612468  .00024877  00000-0  38960-3 0  9996,2 44365  44.9994  92.1079 0008914 139.1166 221.0396 15.53298299165019,,,,,,,415.241,,7.664543277
2,GENERATED VIA SPACE-TRACK.ORG API,2022-06-03T07:16:12,18 SPCS,PROMETHEUS 2-9,2019-037B,EARTH,TEME,UTC,SGP4,2022-06-03T01:35:45.307968,16.10994704,0.0016171,44.9905,45.914,231.5271,128.4193,0,U,44366,999,16555,0.0015387,0.01599225,0.0018788,6622.253,89.386,254.827,233.409,PAYLOAD,SMALL,US,6/29/2019,RLLC,,3478484,205227156,0 PROMETHEUS 2-9,1 44366U 19037B   22154.06649662  .01599225  18788-2  15387-2 0  9999,2 44366  44.9905  45.9140 0016171 231.5271 128.4193 16.10994704165557,,,,,,,252.253,,7.758290464
2,GENERATED VIA SPACE-TRACK.ORG API,2022-06-03T07:16:12,18 SPCS,GLOBAL-3,2019-037C,EARTH,TEME,UTC,SGP4,2022-06-03T03:15:23.981472,15.48039118,0.0008879,45.0047,95.5378,110.6033,249.5811,0,U,44367,999,16497,0.0002355,0.00012269,0,6800.6,93.021,428.503,416.427,PAYLOAD,MEDIUM,US,6/29/2019,RLLC,,3478484,205226740,0 GLOBAL-3,1 44367U 19037C   22154.13569423  .00012269  00000-0  23550-3 0  9999,2 44367  45.0047  95.5378 0008879 110.6033 249.5811 15.48039118164976,,,,,,,430.6,,7.655883286
2,GENERATED VIA SPACE-TRACK.ORG API,2022-06-03T06:26:12,18 SPCS,ACRUX 1,2019-037E,EARTH,TEME,UTC,SGP4,2022-06-02T21:58:33.119904,15.94770097,0.0016474,44.992,34.4257,222.8885,137.074,0,U,44369,999,16562,0.00098988,0.00396325,7.12E-05,6667.092,90.295,299.94,277.974,PAYLOAD,SMALL,AUS,6/29/2019,RLLC,,3478047,205215569,0 ACRUX 1,1 44369U 19037E   22153.91566111  .00396325  71184-4  98988-3 0  9997,2 44369  44.9920  34.4257 0016474 222.8885 137.0740 15.94770097165629,,,,,,,297.092,,7.732157567
2,GENERATED VIA SPACE-TRACK.ORG API,2022-06-03T07:16:12,18 SPCS,METEOR M2-2,2019-038A,EARTH,TEME,UTC,SGP4,2022-06-03T02:18:29.844000,14.23710723,0.0001143,98.7211,114.9901,9.4455,350.6749,0,U,44387,999,15136,2.11E-05,4.00E-08,0,7190.968,101.144,813.655,812.011,PAYLOAD,LARGE,CIS,7/5/2019,VOSTO,,3478475,205226089,0 METEOR M2-2,1 44387U 19038A   22154.09617875  .00000004  00000-0  21116-4 0  9993,2 44387  98.7211 114.9901 0001143   9.4455 350.6749 14.23710723151367,,,,,,,820.968,,7.445180677
